[{"OBJECT_NAME":"ONEWEB-0564","OBJECT_ID":"2023-029F","EPOCH":"2026-03-05T02:53:37.013856","MEAN_MOTION":13.20772457,"ECCENTRICITY":0.0001403,"INCLINATION":87.917,"RA_OF_ASC_NODE":295.2412,"ARG_OF_PERICENTER":71.4426,"MEAN_ANOMALY":288.6859,"EPHEMERIS_TYPE":0,"CLASSIFICATION_TYPE":"U","NORAD_CAT_ID":55801,"ELEMENT_SET_NO":999,"REV_AT_EPOCH":14741,"BSTAR":0.00018006,"MEAN_MOTION_DOT":8.6e-7,"MEAN_MOTION_DDOT":0},{"OBJECT_NAME":"ONEWEB-0638","OBJECT_ID":"2023-029G","EPOCH":"2026-03-05T02:40:51.589344","MEAN_MOTION":13.14503455,"ECCENTRICITY":0.000105,"INCLINATION":87.8983,"RA_OF_ASC_NODE":310.5261,"ARG_OF_PERICENTER":75.8733,"MEAN_ANOMALY":284.2514,"EPHEMERIS_TYPE":0,"CLASSIFICATION_TYPE":"U","NORAD_CAT_ID":55802,"ELEMENT_SET_NO":999,"REV_AT_EPOCH":14572,"BSTAR":0.00019042,"MEAN_MOTION_DOT":8.3e-7,"MEAN_MOTION_DDOT":0},{"OBJECT_NAME":"ONEWEB-0639","OBJECT_ID":"2023-029H","EPOCH":"2026-03-05T03:54:35.019648","MEAN_MOTION":13.19721701,"ECCENTRICITY":0.0002093,"INCLINATION":87.9239,"RA_OF_ASC_NODE":325.7007,"ARG_OF_PERICENTER":108.9731,"MEAN_ANOMALY":251.1629,"EPHEMERIS_TYPE":0,"CLASSIFICATION_TYPE":"U","NORAD_CAT_ID":55803,"ELEMENT_SET_NO":999,"REV_AT_EPOCH":14518,"BSTAR":-0.001395,"MEAN_MOTION_DOT":-5.45e-6,"MEAN_MOTION_DDOT":0},{"OBJECT_NAME":"ONEWEB-0640","OBJECT_ID":"2023-029J","EPOCH":"2026-03-05T02:54:32.782464","MEAN_MOTION":13.14501972,"ECCENTRICITY":0.0001014,"INCLINATION":87.8987,"RA_OF_ASC_NODE":310.5147,"ARG_OF_PERICENTER":101.4314,"MEAN_ANOMALY":258.6929,"EPHEMERIS_TYPE":0,"CLASSIFICATION_TYPE":"U","NORAD_CAT_ID":55804,"ELEMENT_SET_NO":999,"REV_AT_EPOCH":14574,"BSTAR":0.00092433,"MEAN_MOTION_DOT":3.55e-6,"MEAN_MOTION_DDOT":0},{"OBJECT_NAME":"ONEWEB-0641","OBJECT_ID":"2023-029K","EPOCH":"2026-03-05T03:47:45.386016","MEAN_MOTION":13.19725555,"ECCENTRICITY":0.0001754,"INCLINATION":87.924,"RA_OF_ASC_NODE":325.6884,"ARG_OF_PERICENTER":85.6211,"MEAN_ANOMALY":274.5122,"EPHEMERIS_TYPE":0,"CLASSIFICATION_TYPE":"U","NORAD_CAT_ID":55805,"ELEMENT_SET_NO":999,"REV_AT_EPOCH":14519,"BSTAR":0.00017092,"MEAN_MOTION_DOT":8.1e-7,"MEAN_MOTION_DDOT":0},{"OBJECT_NAME":"ONEWEB-0642","OBJECT_ID":"2023-029L","EPOCH":"2026-03-05T03:40:56.088480","MEAN_MOTION":13.1972634,"ECCENTRICITY":0.0002229,"INCLINATION":87.9233,"RA_OF_ASC_NODE":325.7047,"ARG_OF_PERICENTER":100.5938,"MEAN_ANOMALY":259.5446,"EPHEMERIS_TYPE":0,"CLASSIFICATION_TYPE":"U","NORAD_CAT_ID":55806,"ELEMENT_SET_NO":999,"REV_AT_EPOCH":14518,"BSTAR":0.00032258,"MEAN_MOTION_DOT":1.42e-6,"MEAN_MOTION_DDOT":0},{"OBJECT_NAME":"ONEWEB-0643","OBJECT_ID":"2023-029M","EPOCH":"2026-03-05T02:11:09.904704","MEAN_MOTION":13.14502328,"ECCENTRICITY":0.0002191,"INCLINATION":87.8991,"RA_OF_ASC_NODE":310.5076,"ARG_OF_PERICENTER":93.7384,"MEAN_ANOMALY":266.3996,"EPHEMERIS_TYPE":0,"CLASSIFICATION_TYPE":"U","NORAD_CAT_ID":55807,"ELEMENT_SET_NO":999,"REV_AT_EPOCH":14571,"BSTAR":-0.00036643,"MEAN_MOTION_DOT":-1.23e-6,"MEAN_MOTION_DDOT":0},{"OBJECT_NAME":"ONEWEB-0644","OBJECT_ID":"2023-029N","EPOCH":"2026-03-05T03:34:07.227264","MEAN_MOTION":13.19726125,"ECCENTRICITY":0.0001931,"INCLINATION":87.9226,"RA_OF_ASC_NODE":325.7124,"ARG_OF_PERICENTER":89.5617,"MEAN_ANOMALY":270.5737,"EPHEMERIS_TYPE":0,"CLASSIFICATION_TYPE":"U","NORAD_CAT_ID":55808,"ELEMENT_SET_NO":999,"REV_AT_EPOCH":14518,"BSTAR":0.00037539,"MEAN_MOTION_DOT":1.63e-6,"MEAN_MOTION_DDOT":0},{"OBJECT_NAME":"ONEWEB-0645","OBJECT_ID":"2023-029P","EPOCH":"2026-03-05T00:27:35.849952","MEAN_MOTION":13.19724022,"ECCENTRICITY":0.00016,"INCLINATION":87.9229,"RA_OF_ASC_NODE":325.7307,"ARG_OF_PERICENTER":101.0872,"MEAN_ANOMALY":259.044,"EPHEMERIS_TYPE":0,"CLASSIFICATION_TYPE":"U","NORAD_CAT_ID":55809,"ELEMENT_SET_NO":999,"REV_AT_EPOCH":14516,"BSTAR":-4.0904e-5,"MEAN_MOTION_DOT":-3.0e-8,"MEAN_MOTION_DDOT":0},{"OBJECT_NAME":"ONEWEB-0646","OBJECT_ID":"2023-029Q","EPOCH":"2026-03-05T02:41:46.919040","MEAN_MOTION":13.19727424,"ECCENTRICITY":0.0001855,"INCLINATION":87.9238,"RA_OF_ASC_NODE":325.7113,"ARG_OF_PERICENTER":88.3059,"MEAN_ANOMALY":271.8287,"EPHEMERIS_TYPE":0,"CLASSIFICATION_TYPE":"U","NORAD_CAT_ID":55810,"ELEMENT_SET_NO":999,"REV_AT_EPOCH":14516,"BSTAR":0.0001893,"MEAN_MOTION_DOT":8.9e-7,"MEAN_MOTION_DDOT":0},{"OBJECT_NAME":"ONEWEB-0648","OBJECT_ID":"2023-029R","EPOCH":"2026-03-05T03:15:06.247008","MEAN_MOTION":13.14501811,"ECCENTRICITY":0.0001793,"INCLINATION":87.8996,"RA_OF_ASC_NODE":310.4634,"ARG_OF_PERICENTER":114.8159,"MEAN_ANOMALY":245.3157,"EPHEMERIS_TYPE":0,"CLASSIFICATION_TYPE":"U","NORAD_CAT_ID":55811,"ELEMENT_SET_NO":999,"REV_AT_EPOCH":14572,"BSTAR":0.00074677,"MEAN_MOTION_DOT":2.9e-6,"MEAN_MOTION_DDOT":0},{"OBJECT_NAME":"ONEWEB-0649","OBJECT_ID":"2023-029S","EPOCH":"2026-03-05T03:18:10.548576","MEAN_MOTION":13.19724819,"ECCENTRICITY":0.000162,"INCLINATION":87.9236,"RA_OF_ASC_NODE":325.7036,"ARG_OF_PERICENTER":90.4069,"MEAN_ANOMALY":269.7249,"EPHEMERIS_TYPE":0,"CLASSIFICATION_TYPE":"U","NORAD_CAT_ID":55812,"ELEMENT_SET_NO":999,"REV_AT_EPOCH":14520,"BSTAR":0.00016825,"MEAN_MOTION_DOT":8.0e-7,"MEAN_MOTION_DDOT":0},{"OBJECT_NAME":"ONEWEB-0650","OBJECT_ID":"2023-029T","EPOCH":"2026-03-05T03:11:21.356448","MEAN_MOTION":13.1972719,"ECCENTRICITY":0.0001908,"INCLINATION":87.9235,"RA_OF_ASC_NODE":325.7074,"ARG_OF_PERICENTER":93.1078,"MEAN_ANOMALY":267.0273,"EPHEMERIS_TYPE":0,"CLASSIFICATION_TYPE":"U","NORAD_CAT_ID":55813,"ELEMENT_SET_NO":999,"REV_AT_EPOCH":14517,"BSTAR":0.00030088,"MEAN_MOTION_DOT":1.33e-6,"MEAN_MOTION_DDOT":0},{"OBJECT_NAME":"ONEWEB-0652","OBJECT_ID":"2023-029U","EPOCH":"2026-03-05T02:47:42.151776","MEAN_MOTION":13.14502247,"ECCENTRICITY":0.0001617,"INCLINATION":87.8988,"RA_OF_ASC_NODE":310.4829,"ARG_OF_PERICENTER":74.8556,"MEAN_ANOMALY":285.2753,"EPHEMERIS_TYPE":0,"CLASSIFICATION_TYPE":"U","NORAD_CAT_ID":55814,"ELEMENT_SET_NO":999,"REV_AT_EPOCH":14569,"BSTAR":0.00038201,"MEAN_MOTION_DOT":1.54e-6,"MEAN_MOTION_DDOT":0},{"OBJECT_NAME":"ONEWEB-0653","OBJECT_ID":"2023-029V","EPOCH":"2026-03-05T02:24:51.738912","MEAN_MOTION":13.14502565,"ECCENTRICITY":0.0001472,"INCLINATION":87.8997,"RA_OF_ASC_NODE":310.4765,"ARG_OF_PERICENTER":77.8067,"MEAN_ANOMALY":282.3227,"EPHEMERIS_TYPE":0,"CLASSIFICATION_TYPE":"U","NORAD_CAT_ID":55815,"ELEMENT_SET_NO":999,"REV_AT_EPOCH":14572,"BSTAR":-0.00016278,"MEAN_MOTION_DOT":-4.8e-7,"MEAN_MOTION_DDOT":0},{"OBJECT_NAME":"ONEWEB-0654","OBJECT_ID":"2023-029W","EPOCH":"2026-03-05T02:18:00.606240","MEAN_MOTION":13.14502859,"ECCENTRICITY":0.0001574,"INCLINATION":87.8992,"RA_OF_ASC_NODE":310.4768,"ARG_OF_PERICENTER":68.0443,"MEAN_ANOMALY":292.0854,"EPHEMERIS_TYPE":0,"CLASSIFICATION_TYPE":"U","NORAD_CAT_ID":55816,"ELEMENT_SET_NO":999,"REV_AT_EPOCH":14574,"BSTAR":-0.00023059,"MEAN_MOTION_DOT":-7.3e-7,"MEAN_MOTION_DDOT":0},{"OBJECT_NAME":"ONEWEB-0656","OBJECT_ID":"2023-029X","EPOCH":"2026-03-05T02:44:31.627680","MEAN_MOTION":13.20772427,"ECCENTRICITY":0.0001499,"INCLINATION":87.918,"RA_OF_ASC_NODE":295.208,"ARG_OF_PERICENTER":70.6936,"MEAN_ANOMALY":289.436,"EPHEMERIS_TYPE":0,"CLASSIFICATION_TYPE":"U","NORAD_CAT_ID":55817,"ELEMENT_SET_NO":999,"REV_AT_EPOCH":14741,"BSTAR":0.00023287,"MEAN_MOTION_DOT":1.08e-6,"MEAN_MOTION_DDOT":0}]
