ONEWEB-0564             
1 55801U 23029F   26064.12056729  .00000086  00000+0  18006-3 0  9996
2 55801  87.9170 295.2412 0001403  71.4426 288.6859 13.20772457147411
ONEWEB-0638             
1 55802U 23029G   26064.11170821  .00000083  00000+0  19042-3 0  9994
2 55802  87.8983 310.5261 0001050  75.8733 284.2514 13.14503455145728
ONEWEB-0639             
1 55803U 23029H   26064.16290532 -.00000545  00000+0 -13950-2 0  9998
2 55803  87.9239 325.7007 0002093 108.9731 251.1629 13.19721701145185
ONEWEB-0640             
1 55804U 23029J   26064.12121276  .00000355  00000+0  92433-3 0  9994
2 55804  87.8987 310.5147 0001014 101.4314 258.6929 13.14501972145747
ONEWEB-0641             
1 55805U 23029K   26064.15816419  .00000081  00000+0  17092-3 0  9992
2 55805  87.9240 325.6884 0001754  85.6211 274.5122 13.19725555145197
ONEWEB-0642             
1 55806U 23029L   26064.15342695  .00000142  00000+0  32258-3 0  9992
2 55806  87.9233 325.7047 0002229 100.5938 259.5446 13.19726340145187
ONEWEB-0643             
1 55807U 23029M   26064.09108686 -.00000123  00000+0 -36643-3 0  9999
2 55807  87.8991 310.5076 0002191  93.7384 266.3996 13.14502328145716
ONEWEB-0644             
1 55808U 23029N   26064.14869476  .00000163  00000+0  37539-3 0  9994
2 55808  87.9226 325.7124 0001931  89.5617 270.5737 13.19726125145183
ONEWEB-0645             
1 55809U 23029P   26064.01916493 -.00000003  00000+0 -40904-4 0  9999
2 55809  87.9229 325.7307 0001600 101.0872 259.0440 13.19724022145161
ONEWEB-0646             
1 55810U 23029Q   26064.11234860  .00000089  00000+0  18930-3 0  9998
2 55810  87.9238 325.7113 0001855  88.3059 271.8287 13.19727424145164
ONEWEB-0648             
1 55811U 23029R   26064.13548897  .00000290  00000+0  74677-3 0  9993
2 55811  87.8996 310.4634 0001793 114.8159 245.3157 13.14501811145720
ONEWEB-0649             
1 55812U 23029S   26064.13762209  .00000080  00000+0  16825-3 0  9997
2 55812  87.9236 325.7036 0001620  90.4069 269.7249 13.19724819145207
ONEWEB-0650             
1 55813U 23029T   26064.13288607  .00000133  00000+0  30088-3 0  9999
2 55813  87.9235 325.7074 0001908  93.1078 267.0273 13.19727190145177
ONEWEB-0652             
1 55814U 23029U   26064.11646009  .00000154  00000+0  38201-3 0  9990
2 55814  87.8988 310.4829 0001617  74.8556 285.2753 13.14502247145696
ONEWEB-0653             
1 55815U 23029V   26064.10059883 -.00000048  00000+0 -16278-3 0  9992
2 55815  87.8997 310.4765 0001472  77.8067 282.3227 13.14502565145726
ONEWEB-0654             
1 55816U 23029W   26064.09584035 -.00000073  00000+0 -23059-3 0  9996
2 55816  87.8992 310.4768 0001574  68.0443 292.0854 13.14502859145740
ONEWEB-0656             
1 55817U 23029X   26064.11425495  .00000108  00000+0  23287-3 0  9994
2 55817  87.9180 295.2080 0001499  70.6936 289.4360 13.20772427147415
